start=new Date('2022-04-24T00:00:00.000Z').valueOf();
sats=[{"MEAN_MOTION_DDOT":"0.0000000000000","DECAY_DATE":null,"RA_OF_ASC_NODE":"63.7795","BSTAR":"0.00005437400000","CLASSIFICATION_TYPE":"U","SITE":"AFETR","CENTER_NAME":"EARTH","SEMIMAJOR_AXIS":"6925.385","REV_AT_EPOCH":"13547","NORAD_CAT_ID":"44731","LAUNCH_DATE":"2019-11-11","OBJECT_ID":"2019-074U","OBJECT_NAME":"STARLINK-1026","MEAN_ELEMENT_THEORY":"SGP4","TLE_LINE2":"2 44731  53.0573  63.7795 0001472  64.2827 295.8313 15.06388221135471","APOAPSIS":"548.269","COUNTRY_CODE":"US","ECCENTRICITY":"0.00014720","GP_ID":"201887747","PERIOD":"95.593","RCS_SIZE":"LARGE","MEAN_MOTION_DOT":"0.00000528","MEAN_ANOMALY":"295.8313","ARG_OF_PERICENTER":"64.2827","OBJECT_TYPE":"PAYLOAD","FILE":"3413017","ELEMENT_SET_NO":"999","EPHEMERIS_TYPE":"0","PERIAPSIS":"546.230","EPOCH":"2022-04-23T13:52:30.489024","TLE_LINE1":"1 44731U 19074U   22113.57813066  .00000528  00000-0  54374-4 0  9997","REF_FRAME":"TEME","TIME_SYSTEM":"UTC","INCLINATION":"53.0573","MEAN_MOTION":"15.06388221"},{"COUNTRY_CODE":"US","APOAPSIS":"548.456","TLE_LINE2":"2 44732  53.0546  85.0312 0001804  54.7577 305.3581 15.06402338134984","OBJECT_NAME":"STARLINK-1027","MEAN_ELEMENT_THEORY":"SGP4","GP_ID":"201878410","ECCENTRICITY":"0.00018040","BSTAR":"0.00000105150000","CLASSIFICATION_TYPE":"U","RA_OF_ASC_NODE":"85.0312","DECAY_DATE":null,"MEAN_MOTION_DDOT":"0.0000000000000","CENTER_NAME":"EARTH","SITE":"AFETR","REV_AT_EPOCH":"13498","SEMIMAJOR_AXIS":"6925.341","OBJECT_ID":"2019-074V","NORAD_CAT_ID":"44732","LAUNCH_DATE":"2019-11-11","EPOCH":"2022-04-23T07:11:46.460256","REF_FRAME":"TEME","TLE_LINE1":"1 44732U 19074V   22113.29984329 -.00000266  00000-0  10515-5 0  9998","INCLINATION":"53.0546","TIME_SYSTEM":"UTC","MEAN_MOTION":"15.06402338","RCS_SIZE":"LARGE","PERIOD":"95.592","ARG_OF_PERICENTER":"54.7577","MEAN_ANOMALY":"305.3581","MEAN_MOTION_DOT":"-0.00000266","FILE":"3412883","ELEMENT_SET_NO":"999","OBJECT_TYPE":"PAYLOAD","PERIAPSIS":"545.957","EPHEMERIS_TYPE":"0"},{"SITE":"AFETR","CENTER_NAME":"EARTH","MEAN_MOTION_DDOT":"0.0000000000000","RA_OF_ASC_NODE":"63.8567","DECAY_DATE":null,"BSTAR":"-0.00001805200000","CLASSIFICATION_TYPE":"U","NORAD_CAT_ID":"44733","LAUNCH_DATE":"2019-11-11","OBJECT_ID":"2019-074W","SEMIMAJOR_AXIS":"6925.391","REV_AT_EPOCH":"13530","MEAN_ELEMENT_THEORY":"SGP4","OBJECT_NAME":"STARLINK-1028","TLE_LINE2":"2 44733  53.0541  63.8567 0001802  48.7206 311.3938 15.06386315135302","APOAPSIS":"548.503","COUNTRY_CODE":"US","ECCENTRICITY":"0.00018020","GP_ID":"201879660","MEAN_MOTION_DOT":"-0.00000550","MEAN_ANOMALY":"311.3938","ARG_OF_PERICENTER":"48.7206","PERIOD":"95.593","RCS_SIZE":"LARGE","EPHEMERIS_TYPE":"0","PERIAPSIS":"546.008","OBJECT_TYPE":"PAYLOAD","ELEMENT_SET_NO":"999","FILE":"3412883","TLE_LINE1":"1 44733U 19074W   22113.56338127 -.00000550  00000-0 -18052-4 0  9998","REF_FRAME":"TEME","EPOCH":"2022-04-23T13:31:16.141728","MEAN_MOTION":"15.06386315","TIME_SYSTEM":"UTC","INCLINATION":"53.0541"},{"FILE":"3413017","ELEMENT_SET_NO":"999","OBJECT_TYPE":"PAYLOAD","PERIAPSIS":"546.232","EPHEMERIS_TYPE":"0","RCS_SIZE":"LARGE","PERIOD":"95.593","ARG_OF_PERICENTER":"77.8451","MEAN_ANOMALY":"282.2701","MEAN_MOTION_DOT":"-0.00001869","INCLINATION":"53.0549","TIME_SYSTEM":"UTC","MEAN_MOTION":"15.06390776","EPOCH":"2022-04-23T17:03:35.126208","REF_FRAME":"TEME","TLE_LINE1":"1 44734U 19074X   22113.71082322 -.00001869  00000-0 -10665-3 0  9994","REV_AT_EPOCH":"13659","SEMIMAJOR_AXIS":"6925.377","OBJECT_ID":"2019-074X","NORAD_CAT_ID":"44734","LAUNCH_DATE":"2019-11-11","CLASSIFICATION_TYPE":"U","BSTAR":"-0.00010665000000","DECAY_DATE":null,"RA_OF_ASC_NODE":"343.2015","MEAN_MOTION_DDOT":"0.0000000000000","CENTER_NAME":"EARTH","SITE":"AFETR","GP_ID":"201887249","ECCENTRICITY":"0.00014580","COUNTRY_CODE":"US","APOAPSIS":"548.252","TLE_LINE2":"2 44734  53.0549 343.2015 0001458  77.8451 282.2701 15.06390776136598","MEAN_ELEMENT_THEORY":"SGP4","OBJECT_NAME":"STARLINK-1029"},{"ECCENTRICITY":"0.00018460","GP_ID":"201887742","APOAPSIS":"548.489","COUNTRY_CODE":"US","TLE_LINE2":"2 44735  53.0560  84.9955 0001846  51.5660 308.5494 15.06401107135159","OBJECT_NAME":"STARLINK-1030","MEAN_ELEMENT_THEORY":"SGP4","OBJECT_ID":"2019-074Y","LAUNCH_DATE":"2019-11-11","NORAD_CAT_ID":"44735","REV_AT_EPOCH":"13515","SEMIMAJOR_AXIS":"6925.345","CENTER_NAME":"EARTH","SITE":"AFETR","CLASSIFICATION_TYPE":"U","BSTAR":"0.00003136000000","DECAY_DATE":null,"RA_OF_ASC_NODE":"84.9955","MEAN_MOTION_DDOT":"0.0000000000000","MEAN_MOTION":"15.06401107","INCLINATION":"53.0560","TIME_SYSTEM":"UTC","REF_FRAME":"TEME","TLE_LINE1":"1 44735U 19074Y   22113.30720785  .00000185  00000-0  31360-4 0  9996","EPOCH":"2022-04-23T07:22:22.758240","PERIAPSIS":"545.932","EPHEMERIS_TYPE":"0","ELEMENT_SET_NO":"999","FILE":"3413017","OBJECT_TYPE":"PAYLOAD","ARG_OF_PERICENTER":"51.5660","MEAN_MOTION_DOT":"0.00000185","MEAN_ANOMALY":"308.5494","RCS_SIZE":"LARGE","PERIOD":"95.592"},{"PERIOD":"95.592","RCS_SIZE":"LARGE","MEAN_MOTION_DOT":"0.00000178","MEAN_ANOMALY":"301.1416","ARG_OF_PERICENTER":"58.9765","OBJECT_TYPE":"PAYLOAD","FILE":"3413017","ELEMENT_SET_NO":"999","PERIAPSIS":"545.853","EPHEMERIS_TYPE":"0","EPOCH":"2022-04-23T15:41:19.111488","TLE_LINE1":"1 44736U 19074Z   22113.65369342  .00000178  00000-0  30883-4 0  9994","REF_FRAME":"TEME","TIME_SYSTEM":"UTC","INCLINATION":"53.0549","MEAN_MOTION":"15.06399798","MEAN_MOTION_DDOT":"0.0000000000000","CLASSIFICATION_TYPE":"U","BSTAR":"0.00003088300000","DECAY_DATE":null,"RA_OF_ASC_NODE":"83.4614","SITE":"AFETR","CENTER_NAME":"EARTH","SEMIMAJOR_AXIS":"6925.349","REV_AT_EPOCH":"13521","LAUNCH_DATE":"2019-11-11","NORAD_CAT_ID":"44736","OBJECT_ID":"2019-074Z","TLE_LINE2":"2 44736  53.0549  83.4614 0001965  58.9765 301.1416 15.06399798135214","OBJECT_NAME":"STARLINK-1031","MEAN_ELEMENT_THEORY":"SGP4","APOAPSIS":"548.575","COUNTRY_CODE":"US","GP_ID":"201887250","ECCENTRICITY":"0.00019650"},{"TLE_LINE1":"1 44737U 19074AA  22113.33300821 -.00000350  00000-0 -45941-5 0  9993","REF_FRAME":"TEME","EPOCH":"2022-04-23T07:59:31.909344","MEAN_MOTION":"15.06399207","TIME_SYSTEM":"UTC","INCLINATION":"53.0556","MEAN_MOTION_DOT":"-0.00000350","MEAN_ANOMALY":"308.8804","ARG_OF_PERICENTER":"51.2343","PERIOD":"95.592","RCS_SIZE":"LARGE","EPHEMERIS_TYPE":"0","PERIAPSIS":"545.990","OBJECT_TYPE":"PAYLOAD","ELEMENT_SET_NO":"999","FILE":"3412883","MEAN_ELEMENT_THEORY":"SGP4","OBJECT_NAME":"STARLINK-1032","TLE_LINE2":"2 44737  53.0556  84.9015 0001770  51.2343 308.8804 15.06399207134990","APOAPSIS":"548.442","COUNTRY_CODE":"US","ECCENTRICITY":"0.00017700","GP_ID":"201879161","SITE":"AFETR","CENTER_NAME":"EARTH","MEAN_MOTION_DDOT":"0.0000000000000","DECAY_DATE":null,"RA_OF_ASC_NODE":"84.9015","BSTAR":"-0.00000459410000","CLASSIFICATION_TYPE":"U","NORAD_CAT_ID":"44737","LAUNCH_DATE":"2019-11-11","OBJECT_ID":"2019-074AA","SEMIMAJOR_AXIS":"6925.351","REV_AT_EPOCH":"13499"},{"COUNTRY_CODE":"US","APOAPSIS":"548.546","OBJECT_NAME":"STARLINK-1033","MEAN_ELEMENT_THEORY":"SGP4","TLE_LINE2":"2 44738  53.0560  84.6632 0001913  49.1893 310.9262 15.06397431134992","GP_ID":"201879911","ECCENTRICITY":"0.00019130","CENTER_NAME":"EARTH","SITE":"AFETR","DECAY_DATE":null,"RA_OF_ASC_NODE":"84.6632","BSTAR":"-0.00007020700000","CLASSIFICATION_TYPE":"U","MEAN_MOTION_DDOT":"0.0000000000000","OBJECT_ID":"2019-074AB","NORAD_CAT_ID":"44738","LAUNCH_DATE":"2019-11-11","REV_AT_EPOCH":"13499","SEMIMAJOR_AXIS":"6925.356","REF_FRAME":"TEME","TLE_LINE1":"1 44738U 19074AB  22113.38461479 -.00001327  00000-0 -70207-4 0  9993","EPOCH":"2022-04-23T09:13:50.717856","MEAN_MOTION":"15.06397431","INCLINATION":"53.0560","TIME_SYSTEM":"UTC","ARG_OF_PERICENTER":"49.1893","MEAN_MOTION_DOT":"-0.00001327","MEAN_ANOMALY":"310.9262","RCS_SIZE":"LARGE","PERIOD":"95.592","EPHEMERIS_TYPE":"0","PERIAPSIS":"545.897","ELEMENT_SET_NO":"999","FILE":"3412883","OBJECT_TYPE":"PAYLOAD"},{"FILE":"3412883","ELEMENT_SET_NO":"999","OBJECT_TYPE":"PAYLOAD","EPHEMERIS_TYPE":"0","PERIAPSIS":"528.056","RCS_SIZE":"LARGE","PERIOD":"95.230","ARG_OF_PERICENTER":"76.3506","MEAN_MOTION_DOT":"0.00028177","MEAN_ANOMALY":"283.7749","INCLINATION":"52.9964","TIME_SYSTEM":"UTC","MEAN_MOTION":"15.12131974","EPOCH":"2022-04-23T05:08:56.773536","REF_FRAME":"TEME","TLE_LINE1":"1 44739U 19074AC  22113.21454599  .00028177  00000-0  16270-2 0  9999","REV_AT_EPOCH":"13503","SEMIMAJOR_AXIS":"6907.836","OBJECT_ID":"2019-074AC","NORAD_CAT_ID":"44739","LAUNCH_DATE":"2019-11-11","RA_OF_ASC_NODE":"78.0606","DECAY_DATE":null,"BSTAR":"0.00162700000000","CLASSIFICATION_TYPE":"U","MEAN_MOTION_DDOT":"0.0000000000000","CENTER_NAME":"EARTH","SITE":"AFETR","GP_ID":"201878161","ECCENTRICITY":"0.00023820","COUNTRY_CODE":"US","APOAPSIS":"531.347","MEAN_ELEMENT_THEORY":"SGP4","OBJECT_NAME":"STARLINK-1034","TLE_LINE2":"2 44739  52.9964  78.0606 0002382  76.3506 283.7749 15.12131974135039"},{"TIME_SYSTEM":"UTC","INCLINATION":"53.0551","MEAN_MOTION":"15.06393672","EPOCH":"2022-04-23T17:27:28.145376","TLE_LINE1":"1 44740U 19074AD  22113.72740909  .00000051  00000-0  22303-4 0  9997","REF_FRAME":"TEME","OBJECT_TYPE":"PAYLOAD","ELEMENT_SET_NO":"999","FILE":"3413017","PERIAPSIS":"545.944","EPHEMERIS_TYPE":"0","PERIOD":"95.593","RCS_SIZE":"LARGE","MEAN_ANOMALY":"311.6971","MEAN_MOTION_DOT":"0.00000051","ARG_OF_PERICENTER":"48.4178","GP_ID":"201887749","ECCENTRICITY":"0.00018610","TLE_LINE2":"2 44740  53.0551  83.1227 0001861  48.4178 311.6971 15.06393672135224","OBJECT_NAME":"STARLINK-1035","MEAN_ELEMENT_THEORY":"SGP4","COUNTRY_CODE":"US","APOAPSIS":"548.522","SEMIMAJOR_AXIS":"6925.368","REV_AT_EPOCH":"13522","NORAD_CAT_ID":"44740","LAUNCH_DATE":"2019-11-11","OBJECT_ID":"2019-074AD","MEAN_MOTION_DDOT":"0.0000000000000","CLASSIFICATION_TYPE":"U","BSTAR":"0.00002230300000","DECAY_DATE":null,"RA_OF_ASC_NODE":"83.1227","SITE":"AFETR","CENTER_NAME":"EARTH"}];
